{
  "norad_id": 68334,
  "name": "STARLINK-37191",
  "history": [
    {
      "epoch": "2026-03-31T16:00:01.999584Z",
      "apogee_km": 328.7073887686038,
      "perigee_km": 327.20254173160174,
      "latitude_deg": -52.92203238862373,
      "longitude_deg": 83.9356736586864,
      "height_km": 347.0390641448983,
      "semi_major_axis_km": 6706.0919652501025,
      "eccentricity": 0.0001122,
      "inclination_deg": 53.1594,
      "raan_deg": 252.6374,
      "arg_perigee_deg": 66.1027,
      "mean_anomaly_deg": 198.0644,
      "mean_motion_rev_day": 15.80878542
    }
  ]
}